[{"OBJECT_NAME":"STARLINK-31856","OBJECT_ID":"2024-107R","EPOCH":"2026-03-09T06:30:56.635776","MEAN_MOTION":15.30186943,"ECCENTRICITY":0.00013356,"INCLINATION":53.1605,"RA_OF_ASC_NODE":67.3866,"ARG_OF_PERICENTER":78.5274,"MEAN_ANOMALY":281.5877,"EPHEMERIS_TYPE":0,"CLASSIFICATION_TYPE":"U","NORAD_CAT_ID":59960,"ELEMENT_SET_NO":999,"REV_AT_EPOCH":9973,"BSTAR":8.5176157e-5,"MEAN_MOTION_DOT":2.163e-5,"MEAN_MOTION_DDOT":0},{"OBJECT_NAME":"KUIPER-00226","OBJECT_ID":"2026-030X","EPOCH":"2026-03-09T15:01:51.726432","MEAN_MOTION":15.30655594,"ECCENTRICITY":0.0017713,"INCLINATION":51.8814,"RA_OF_ASC_NODE":220.1252,"ARG_OF_PERICENTER":64.2781,"MEAN_ANOMALY":296.003,"EPHEMERIS_TYPE":0,"CLASSIFICATION_TYPE":"U","NORAD_CAT_ID":67785,"ELEMENT_SET_NO":999,"REV_AT_EPOCH":507,"BSTAR":0.001553,"MEAN_MOTION_DOT":0.00046834,"MEAN_MOTION_DDOT":0}]
